[{"OBJECT_NAME":"YAOGAN-19","OBJECT_ID":"2013-065A","EPOCH":"2026-03-09T22:04:30.738144","MEAN_MOTION":13.15578826,"ECCENTRICITY":0.00090241,"INCLINATION":100.1035,"RA_OF_ASC_NODE":49.7884,"ARG_OF_PERICENTER":320.185,"MEAN_ANOMALY":39.8601,"EPHEMERIS_TYPE":0,"CLASSIFICATION_TYPE":"U","NORAD_CAT_ID":39410,"ELEMENT_SET_NO":999,"REV_AT_EPOCH":59059,"BSTAR":0.00094809629,"MEAN_MOTION_DOT":3.15e-6,"MEAN_MOTION_DDOT":0},{"OBJECT_NAME":"COSMOS 2499 (RS47)","OBJECT_ID":"2014-028E","EPOCH":"2026-03-09T23:59:39.377184","MEAN_MOTION":12.82900854,"ECCENTRICITY":0.02305914,"INCLINATION":82.4519,"RA_OF_ASC_NODE":319.3749,"ARG_OF_PERICENTER":234.405,"MEAN_ANOMALY":123.5373,"EPHEMERIS_TYPE":0,"CLASSIFICATION_TYPE":"U","NORAD_CAT_ID":39765,"ELEMENT_SET_NO":999,"REV_AT_EPOCH":55230,"BSTAR":4.6935667e-5,"MEAN_MOTION_DOT":2.2e-7,"MEAN_MOTION_DDOT":0}]
